QIANFAN-18              
1 60396U 24140T   26073.92263835  .00000063  00000+0  78466-4 0  9994
2 60396  88.9706 289.4336 0012559 284.9186  75.0574 13.51004584 79970
QIANFAN-19              
1 61552U 24185A   26073.91183432  .00000536  00000+0  27303-3 0  9999
2 61552  88.9766  67.3555 0007739  26.4407 333.7173 14.14397510 82692
QIANFAN-20              
1 61553U 24185B   26073.94571662  .00000481  00000+0  27010-3 0  9993
2 61553  88.9763  67.7684 0007849  61.7404 298.4572 14.08943501 82474
QIANFAN-21              
1 61554U 24185C   26073.88923923  .00000720  00000+0  31468-3 0  9996
2 61554  88.9685  66.1621 0012869  67.9178 292.3379 14.22742115 83075
QIANFAN-22              
1 61555U 24185D   26073.88850860  .00000292  00000+0  24103-3 0  9998
2 61555  88.9747  69.1287 0008593  78.6083 281.6053 13.86344189 81705
QIANFAN-23              
1 61556U 24185E   26073.89852545  .00000677  00000+0  33356-3 0  9999
2 61556  88.9759  67.1234 0008798  34.5956 325.5803 14.16404719 82797
QIANFAN-24              
1 61557U 24185F   26073.88448156  .00000874  00000+0  37486-3 0  9995
2 61557  88.9743  66.3794 0009494  12.3587 347.7836 14.23949732 83139
QIANFAN-25              
1 61558U 24185G   26073.88870525  .00000492  00000+0  29191-3 0  9995
2 61558  88.9756  67.7373 0011730  41.5055 318.7016 14.06004562 82458
QIANFAN-26              
1 61559U 24185H   26073.90545011  .00000234  00000+0  22106-3 0  9991
2 61559  88.9752  69.7819 0007949  91.7185 268.4891 13.77865985 81362
QIANFAN-27              
1 61560U 24185J   26073.93327341  .00000644  00000+0  25647-3 0  9998
2 61560  88.9757  66.1119 0007558   5.2429 354.8843 14.27455025 83310
QIANFAN-28              
1 61561U 24185K   26073.93775243  .00001003  00000+0  39696-3 0  9996
2 61561  88.9772  66.1188 0007127   6.4294 353.6991 14.28233327 83332
QIANFAN-29              
1 61562U 24185L   26073.94581130  .00000223  00000+0  32647-3 0  9990
2 61562  88.9723  71.7612 0011139 135.2366 224.9686 13.51047675 80244
QIANFAN-30              
1 61563U 24185M   26073.91642379  .00000212  00000+0  31407-3 0  9992
2 61563  88.9743  71.3250 0009292 121.1252 239.0812 13.50022388 80506
QIANFAN-31              
1 61564U 24185N   26073.93296509  .00000228  00000+0  29809-3 0  9995
2 61564  88.9728  70.9785 0008888 113.3063 246.9029 13.58007172 80678
QIANFAN-32              
1 61565U 24185P   26073.90801988  .00000184  00000+0  26729-3 0  9995
2 61565  88.9787  71.4883 0010539 147.3740 212.8064 13.50766824 80482
QIANFAN-33              
1 61566U 24185Q   26073.89964446  .00000485  00000+0  34071-3 0  9996
2 61566  88.9743  68.5105 0008836  50.7007 309.4952 13.96631947 82027
QIANFAN-34              
1 61567U 24185R   26073.91506205  .00000552  00000+0  35037-3 0  9993
2 61567  88.9723  67.9499 0007763  53.0229 307.1661 14.02393103 82271
