[{"OBJECT_NAME":"QIANFAN-18","OBJECT_ID":"2024-140T","EPOCH":"2026-03-14T22:08:35.953440","MEAN_MOTION":13.51004584,"ECCENTRICITY":0.0012559,"INCLINATION":88.9706,"RA_OF_ASC_NODE":289.4336,"ARG_OF_PERICENTER":284.9186,"MEAN_ANOMALY":75.0574,"EPHEMERIS_TYPE":0,"CLASSIFICATION_TYPE":"U","NORAD_CAT_ID":60396,"ELEMENT_SET_NO":999,"REV_AT_EPOCH":7997,"BSTAR":7.8465759e-5,"MEAN_MOTION_DOT":6.3e-7,"MEAN_MOTION_DDOT":0},{"OBJECT_NAME":"QIANFAN-19","OBJECT_ID":"2024-185A","EPOCH":"2026-03-14T21:53:02.485248","MEAN_MOTION":14.1439751,"ECCENTRICITY":0.00077395,"INCLINATION":88.9766,"RA_OF_ASC_NODE":67.3555,"ARG_OF_PERICENTER":26.4407,"MEAN_ANOMALY":333.7173,"EPHEMERIS_TYPE":0,"CLASSIFICATION_TYPE":"U","NORAD_CAT_ID":61552,"ELEMENT_SET_NO":999,"REV_AT_EPOCH":8269,"BSTAR":0.00027302981,"MEAN_MOTION_DOT":5.36e-6,"MEAN_MOTION_DDOT":0},{"OBJECT_NAME":"QIANFAN-20","OBJECT_ID":"2024-185B","EPOCH":"2026-03-14T22:41:49.915968","MEAN_MOTION":14.08943501,"ECCENTRICITY":0.00078496,"INCLINATION":88.9763,"RA_OF_ASC_NODE":67.7684,"ARG_OF_PERICENTER":61.7404,"MEAN_ANOMALY":298.4572,"EPHEMERIS_TYPE":0,"CLASSIFICATION_TYPE":"U","NORAD_CAT_ID":61553,"ELEMENT_SET_NO":999,"REV_AT_EPOCH":8247,"BSTAR":0.00027009978,"MEAN_MOTION_DOT":4.81e-6,"MEAN_MOTION_DDOT":0},{"OBJECT_NAME":"QIANFAN-21","OBJECT_ID":"2024-185C","EPOCH":"2026-03-14T21:20:30.269472","MEAN_MOTION":14.22742115,"ECCENTRICITY":0.0012869,"INCLINATION":88.9685,"RA_OF_ASC_NODE":66.1621,"ARG_OF_PERICENTER":67.9178,"MEAN_ANOMALY":292.3379,"EPHEMERIS_TYPE":0,"CLASSIFICATION_TYPE":"U","NORAD_CAT_ID":61554,"ELEMENT_SET_NO":999,"REV_AT_EPOCH":8307,"BSTAR":0.00031468435,"MEAN_MOTION_DOT":7.2e-6,"MEAN_MOTION_DDOT":0},{"OBJECT_NAME":"QIANFAN-22","OBJECT_ID":"2024-185D","EPOCH":"2026-03-14T21:19:27.143040","MEAN_MOTION":13.86344189,"ECCENTRICITY":0.00085933,"INCLINATION":88.9747,"RA_OF_ASC_NODE":69.1287,"ARG_OF_PERICENTER":78.6083,"MEAN_ANOMALY":281.6053,"EPHEMERIS_TYPE":0,"CLASSIFICATION_TYPE":"U","NORAD_CAT_ID":61555,"ELEMENT_SET_NO":999,"REV_AT_EPOCH":8170,"BSTAR":0.0002410316,"MEAN_MOTION_DOT":2.92e-6,"MEAN_MOTION_DDOT":0},{"OBJECT_NAME":"QIANFAN-23","OBJECT_ID":"2024-185E","EPOCH":"2026-03-14T21:33:52.598880","MEAN_MOTION":14.16404719,"ECCENTRICITY":0.00087986,"INCLINATION":88.9759,"RA_OF_ASC_NODE":67.1234,"ARG_OF_PERICENTER":34.5956,"MEAN_ANOMALY":325.5803,"EPHEMERIS_TYPE":0,"CLASSIFICATION_TYPE":"U","NORAD_CAT_ID":61556,"ELEMENT_SET_NO":999,"REV_AT_EPOCH":8279,"BSTAR":0.00033355538,"MEAN_MOTION_DOT":6.77e-6,"MEAN_MOTION_DDOT":0},{"OBJECT_NAME":"QIANFAN-24","OBJECT_ID":"2024-185F","EPOCH":"2026-03-14T21:13:39.206784","MEAN_MOTION":14.23949732,"ECCENTRICITY":0.00094949,"INCLINATION":88.9743,"RA_OF_ASC_NODE":66.3794,"ARG_OF_PERICENTER":12.3587,"MEAN_ANOMALY":347.7836,"EPHEMERIS_TYPE":0,"CLASSIFICATION_TYPE":"U","NORAD_CAT_ID":61557,"ELEMENT_SET_NO":999,"REV_AT_EPOCH":8313,"BSTAR":0.00037486303,"MEAN_MOTION_DOT":8.74e-6,"MEAN_MOTION_DDOT":0},{"OBJECT_NAME":"QIANFAN-25","OBJECT_ID":"2024-185G","EPOCH":"2026-03-14T21:19:44.133600","MEAN_MOTION":14.06004562,"ECCENTRICITY":0.00117309,"INCLINATION":88.9756,"RA_OF_ASC_NODE":67.7373,"ARG_OF_PERICENTER":41.5055,"MEAN_ANOMALY":318.7016,"EPHEMERIS_TYPE":0,"CLASSIFICATION_TYPE":"U","NORAD_CAT_ID":61558,"ELEMENT_SET_NO":999,"REV_AT_EPOCH":8245,"BSTAR":0.00029190968,"MEAN_MOTION_DOT":4.92e-6,"MEAN_MOTION_DDOT":0},{"OBJECT_NAME":"QIANFAN-26","OBJECT_ID":"2024-185H","EPOCH":"2026-03-14T21:43:50.889504","MEAN_MOTION":13.77865985,"ECCENTRICITY":0.00079494,"INCLINATION":88.9752,"RA_OF_ASC_NODE":69.7819,"ARG_OF_PERICENTER":91.7185,"MEAN_ANOMALY":268.4891,"EPHEMERIS_TYPE":0,"CLASSIFICATION_TYPE":"U","NORAD_CAT_ID":61559,"ELEMENT_SET_NO":999,"REV_AT_EPOCH":8136,"BSTAR":0.00022106244,"MEAN_MOTION_DOT":2.34e-6,"MEAN_MOTION_DDOT":0},{"OBJECT_NAME":"QIANFAN-27","OBJECT_ID":"2024-185J","EPOCH":"2026-03-14T22:23:54.822624","MEAN_MOTION":14.27455025,"ECCENTRICITY":0.00075589,"INCLINATION":88.9757,"RA_OF_ASC_NODE":66.1119,"ARG_OF_PERICENTER":5.2429,"MEAN_ANOMALY":354.8843,"EPHEMERIS_TYPE":0,"CLASSIFICATION_TYPE":"U","NORAD_CAT_ID":61560,"ELEMENT_SET_NO":999,"REV_AT_EPOCH":8331,"BSTAR":0.00025646912,"MEAN_MOTION_DOT":6.44e-6,"MEAN_MOTION_DDOT":0},{"OBJECT_NAME":"QIANFAN-28","OBJECT_ID":"2024-185K","EPOCH":"2026-03-14T22:30:21.809952","MEAN_MOTION":14.28233327,"ECCENTRICITY":0.00071273,"INCLINATION":88.9772,"RA_OF_ASC_NODE":66.1188,"ARG_OF_PERICENTER":6.4294,"MEAN_ANOMALY":353.6991,"EPHEMERIS_TYPE":0,"CLASSIFICATION_TYPE":"U","NORAD_CAT_ID":61561,"ELEMENT_SET_NO":999,"REV_AT_EPOCH":8333,"BSTAR":0.00039695847,"MEAN_MOTION_DOT":1.003e-5,"MEAN_MOTION_DDOT":0},{"OBJECT_NAME":"QIANFAN-29","OBJECT_ID":"2024-185L","EPOCH":"2026-03-14T22:41:58.096320","MEAN_MOTION":13.51047675,"ECCENTRICITY":0.00111393,"INCLINATION":88.9723,"RA_OF_ASC_NODE":71.7612,"ARG_OF_PERICENTER":135.2366,"MEAN_ANOMALY":224.9686,"EPHEMERIS_TYPE":0,"CLASSIFICATION_TYPE":"U","NORAD_CAT_ID":61562,"ELEMENT_SET_NO":999,"REV_AT_EPOCH":8024,"BSTAR":0.00032647412,"MEAN_MOTION_DOT":2.23e-6,"MEAN_MOTION_DDOT":0},{"OBJECT_NAME":"QIANFAN-30","OBJECT_ID":"2024-185M","EPOCH":"2026-03-14T21:59:39.015456","MEAN_MOTION":13.50022388,"ECCENTRICITY":0.0009292,"INCLINATION":88.9743,"RA_OF_ASC_NODE":71.325,"ARG_OF_PERICENTER":121.1252,"MEAN_ANOMALY":239.0812,"EPHEMERIS_TYPE":0,"CLASSIFICATION_TYPE":"U","NORAD_CAT_ID":61563,"ELEMENT_SET_NO":999,"REV_AT_EPOCH":8050,"BSTAR":0.00031406689,"MEAN_MOTION_DOT":2.12e-6,"MEAN_MOTION_DDOT":0},{"OBJECT_NAME":"QIANFAN-31","OBJECT_ID":"2024-185N","EPOCH":"2026-03-14T22:23:28.183776","MEAN_MOTION":13.58007172,"ECCENTRICITY":0.00088889,"INCLINATION":88.9728,"RA_OF_ASC_NODE":70.9785,"ARG_OF_PERICENTER":113.3063,"MEAN_ANOMALY":246.9029,"EPHEMERIS_TYPE":0,"CLASSIFICATION_TYPE":"U","NORAD_CAT_ID":61564,"ELEMENT_SET_NO":999,"REV_AT_EPOCH":8067,"BSTAR":0.00029809238,"MEAN_MOTION_DOT":2.28e-6,"MEAN_MOTION_DDOT":0},{"OBJECT_NAME":"QIANFAN-32","OBJECT_ID":"2024-185P","EPOCH":"2026-03-14T21:47:32.917632","MEAN_MOTION":13.50766824,"ECCENTRICITY":0.0010539,"INCLINATION":88.9787,"RA_OF_ASC_NODE":71.4883,"ARG_OF_PERICENTER":147.374,"MEAN_ANOMALY":212.8064,"EPHEMERIS_TYPE":0,"CLASSIFICATION_TYPE":"U","NORAD_CAT_ID":61565,"ELEMENT_SET_NO":999,"REV_AT_EPOCH":8048,"BSTAR":0.00026729124,"MEAN_MOTION_DOT":1.84e-6,"MEAN_MOTION_DDOT":0},{"OBJECT_NAME":"QIANFAN-33","OBJECT_ID":"2024-185Q","EPOCH":"2026-03-14T21:35:29.281344","MEAN_MOTION":13.96631947,"ECCENTRICITY":0.00088368,"INCLINATION":88.9743,"RA_OF_ASC_NODE":68.5105,"ARG_OF_PERICENTER":50.7007,"MEAN_ANOMALY":309.4952,"EPHEMERIS_TYPE":0,"CLASSIFICATION_TYPE":"U","NORAD_CAT_ID":61566,"ELEMENT_SET_NO":999,"REV_AT_EPOCH":8202,"BSTAR":0.00034070516,"MEAN_MOTION_DOT":4.85e-6,"MEAN_MOTION_DDOT":0},{"OBJECT_NAME":"QIANFAN-34","OBJECT_ID":"2024-185R","EPOCH":"2026-03-14T21:57:41.361120","MEAN_MOTION":14.02393103,"ECCENTRICITY":0.00077638,"INCLINATION":88.9723,"RA_OF_ASC_NODE":67.9499,"ARG_OF_PERICENTER":53.0229,"MEAN_ANOMALY":307.1661,"EPHEMERIS_TYPE":0,"CLASSIFICATION_TYPE":"U","NORAD_CAT_ID":61567,"ELEMENT_SET_NO":999,"REV_AT_EPOCH":8227,"BSTAR":0.00035037439,"MEAN_MOTION_DOT":5.52e-6,"MEAN_MOTION_DDOT":0}]
